{
    "links": {
        "self": "http://www.neowsapp.com/rest/v1/neo/3541505?api_key=iIulBulltgU6a56xZRHN4H3l9WmuAYTsLGpBGhQ2"
    },
    "id": "3541505",
    "neo_reference_id": "3541505",
    "name": "(2010 PJ)",
    "designation": "2010 PJ",
    "nasa_jpl_url": "http://ssd.jpl.nasa.gov/sbdb.cgi?sstr=3541505",
    "absolute_magnitude_h": 21.8,
    "estimated_diameter": {
        "kilometers": {
            "estimated_diameter_min": 0.1160259082,
            "estimated_diameter_max": 0.2594418179
        },
        "meters": {
            "estimated_diameter_min": 116.0259082094,
            "estimated_diameter_max": 259.4418179074
        },
        "miles": {
            "estimated_diameter_min": 0.0720951346,
            "estimated_diameter_max": 0.1612096218
        },
        "feet": {
            "estimated_diameter_min": 380.6624406898,
            "estimated_diameter_max": 851.1870938635
        }
    },
    "is_potentially_hazardous_asteroid": false,
    "close_approach_data": [
        {
            "close_approach_date": "2010-08-09",
            "close_approach_date_full": "2010-Aug-09 09:59",
            "epoch_date_close_approach": 1281347940000,
            "relative_velocity": {
                "kilometers_per_second": "18.0290034334",
                "kilometers_per_hour": "64904.4123602",
                "miles_per_hour": "40329.0777801476"
            },
            "miss_distance": {
                "astronomical": "0.088115666",
                "lunar": "34.276994074",
                "kilometers": "13181915.94723142",
                "miles": "8190862.754256796"
            },
            "orbiting_body": "Earth"
        }
    ],
    "orbital_data": {
        "orbit_id": "9",
        "orbit_determination_date": "2017-04-06 08:57:03",
        "first_observation_date": "2010-08-02",
        "last_observation_date": "2010-08-07",
        "data_arc_in_days": 5,
        "observations_used": 55,
        "orbit_uncertainty": "8",
        "minimum_orbit_intersection": ".0841294",
        "jupiter_tisserand_invariant": "3.974",
        "epoch_osculation": "2455412.5",
        "eccentricity": ".4792656507288495",
        "semi_major_axis": "1.682839147022944",
        "inclination": "27.98797467266632",
        "ascending_node_longitude": "130.1458393405334",
        "orbital_period": "797.3744878585366",
        "perihelion_distance": ".876312148153011",
        "perihelion_argument": "251.3973566821528",
        "aphelion_distance": "2.489366145892878",
        "perihelion_time": "2455470.114717612599",
        "mean_anomaly": "333.9880085751936",
        "mean_motion": ".4514817134002263",
        "equinox": "J2000",
        "orbit_class": {
            "orbit_class_type": "APO",
            "orbit_class_description": "Near-Earth asteroid orbits which cross the Earth’s orbit similar to that of 1862 Apollo",
            "orbit_class_range": "a (semi-major axis) > 1.0 AU; q (perihelion) < 1.017 AU"
        }
    },
    "is_sentry_object": false
}